{"fetched_at":"2026-03-29T16:36:15Z","count":15609,"tles":[{"name":"STARLINK-32159","line1":"1 60293U 24132R   26087.95167030 -.00000793  00000+0 -14642-4 0  9997","line2":"2 60293  53.1614 322.6626 0001156  93.7730 266.3403 15.30191102 94517","category":"Starlink"}]}