{
  "norad_id": 60293,
  "name": "STARLINK-32159",
  "history": [
    {
      "epoch": "2026-03-28T22:50:24.313920",
      "apogee_km": 476.03388794267084,
      "perigee_km": 474.4493868017107,
      "latitude_deg": -41.653431696659034,
      "longitude_deg": -59.33965119998902,
      "semi_major_axis_km": 6853.3786373721905,
      "eccentricity": 0.0001156,
      "inclination_deg": 53.1614,
      "raan_deg": 322.6626,
      "arg_perigee_deg": 93.773,
      "mean_anomaly_deg": 266.3403,
      "mean_motion_rev_day": 15.30191102
    }
  ]
}